{"type": "FeatureCollection", "features": [ {"type": "Feature", "properties": {"norad_id": 30061, "name": "FENGYUN 1C DEB", "group": "fengyun-1c-debris", "lat": 39.01936621131545, "lon": -74.88896659781373, "alt_km": 1181.039384328812, "timestamp": "2025-12-11T18:59:46.346785+00:00", "meta": {"OBJECT_NAME": "FENGYUN 1C DEB", "OBJECT_ID": "1999-025PN", "EPOCH": "2025-12-11T06:08:57.698304", "MEAN_MOTION": 13.46438053, "ECCENTRICITY": 0.03727791, "INCLINATION": 101.8748, "RA_OF_ASC_NODE": 94.6603, "ARG_OF_PERICENTER": 253.8831, "MEAN_ANOMALY": 176.5624, "EPHEMERIS_TYPE": 0, "CLASSIFICATION_TYPE": "U", "NORAD_CAT_ID": 30061, "ELEMENT_SET_NO": 999, "REV_AT_EPOCH": 92079, "BSTAR": 0.0051944045, "MEAN_MOTION_DOT": 4.709e-05, "MEAN_MOTION_DDOT": 0}, "tle": {"line1": "1 30061U 99025PN  25345.25622336  .00004709  00000+0  51944-2 0  9997", "line2": "2 30061 101.8748  94.6603 0372779 253.8831 176.5624 13.46438053920799"}}, "geometry": {"type": "Point", "coordinates": [-74.88896659781373, 39.01936621131545]}}, {"type": "Feature", "properties": {"norad_id": 30062, "name": "FENGYUN 1C DEB", "group": "fengyun-1c-debris", "lat": -61.42978765514524, "lon": 158.51661518829482, "alt_km": 911.551472157048, "timestamp": "2025-12-11T18:59:46.346796+00:00", "meta": {"OBJECT_NAME": "FENGYUN 1C DEB", "OBJECT_ID": "1999-025PP", "EPOCH": "2025-12-10T18:46:30.052128", "MEAN_MOTION": 14.07107541, "ECCENTRICITY": 0.00495382, "INCLINATION": 98.7808, "RA_OF_ASC_NODE": 354.0259, "ARG_OF_PERICENTER": 53.7031, "MEAN_ANOMALY": 119.6226, "EPHEMERIS_TYPE": 0, "CLASSIFICATION_TYPE": "U", "NORAD_CAT_ID": 30062, "ELEMENT_SET_NO": 999, "REV_AT_EPOCH": 96880, "BSTAR": 0.00067272975, "MEAN_MOTION_DOT": 1.095e-05, "MEAN_MOTION_DDOT": 0}, "tle": {"line1": "1 30062U 99025PP  25344.78229227  .00001095  00000+0  67273-3 0  9995", "line2": "2 30062  98.7808 354.0259 0049538  53.7031 119.6226 14.07107541968807"}}, "geometry": {"type": "Point", "coordinates": [158.51661518829482, -61.42978765514524]}}, {"type": "Feature", "properties": {"norad_id": 30063, "name": "FENGYUN 1C DEB", "group": "fengyun-1c-debris", "lat": -46.14527679736626, "lon": 135.6704117514727, "alt_km": 846.8349116486061, "timestamp": "2025-12-11T18:59:46.346806+00:00", "meta": {"OBJECT_NAME": "FENGYUN 1C DEB", "OBJECT_ID": "1999-025PQ", "EPOCH": "2025-12-11T04:25:31.831680", "MEAN_MOTION": 14.15610849, "ECCENTRICITY": 0.0032938, "INCLINATION": 98.5213, "RA_OF_ASC_NODE": 324.0673, "ARG_OF_PERICENTER": 138.5899, "MEAN_ANOMALY": 235.5417, "EPHEMERIS_TYPE": 0, "CLASSIFICATION_TYPE": "U", "NORAD_CAT_ID": 30063, "ELEMENT_SET_NO": 999, "REV_AT_EPOCH": 97643, "BSTAR": 0.00012206976, "MEAN_MOTION_DOT": 1.99e-06, "MEAN_MOTION_DDOT": 0}, "tle": {"line1": "1 30063U 99025PQ  25345.18439620  .00000199  00000+0  12207-3 0  9992", "line2": "2 30063  98.5213 324.0673 0032938 138.5899 235.5417 14.15610849976430"}}, "geometry": {"type": "Point", "coordinates": [135.6704117514727, -46.14527679736626]}}, {"type": "Feature", "properties": {"norad_id": 30064, "name": "FENGYUN 1C DEB", "group": "fengyun-1c-debris", "lat": -4.8502113119932835, "lon": -2.38684003310999, "alt_km": 871.2882293918101, "timestamp": "2025-12-11T18:59:46.346817+00:00", "meta": {"OBJECT_NAME": "FENGYUN 1C DEB", "OBJECT_ID": "1999-025PR", "EPOCH": "2025-12-11T00:36:04.909248", "MEAN_MOTION": 14.14267622, "ECCENTRICITY": 0.00666142, "INCLINATION": 98.6618, "RA_OF_ASC_NODE": 356.1289, "ARG_OF_PERICENTER": 116.2403, "MEAN_ANOMALY": 299.5458, "EPHEMERIS_TYPE": 0, "CLASSIFICATION_TYPE": "U", "NORAD_CAT_ID": 30064, "ELEMENT_SET_NO": 999, "REV_AT_EPOCH": 97481, "BSTAR": 0.00023637858, "MEAN_MOTION_DOT": 4.19e-06, "MEAN_MOTION_DDOT": 0}, "tle": {"line1": "1 30064U 99025PR  25345.02505682  .00000419  00000+0  23638-3 0  9993", "line2": "2 30064  98.6618 356.1289 0066614 116.2403 299.5458 14.14267622974813"}}, "geometry": {"type": "Point", "coordinates": [-2.38684003310999, -4.8502113119932835]}}, {"type": "Feature", "properties": {"norad_id": 30065, "name": "FENGYUN 1C DEB", "group": "fengyun-1c-debris", "lat": 44.64439271704731, "lon": -49.99366332491052, "alt_km": 840.9500367587507, "timestamp": "2025-12-11T18:59:46.346827+00:00", "meta": {"OBJECT_NAME": "FENGYUN 1C DEB", "OBJECT_ID": "1999-025PS", "EPOCH": "2025-12-10T04:41:36.380544", "MEAN_MOTION": 13.86913901, "ECCENTRICITY": 0.01317595, "INCLINATION": 98.6838, "RA_OF_ASC_NODE": 317.2052, "ARG_OF_PERICENTER": 38.5254, "MEAN_ANOMALY": 322.522, "EPHEMERIS_TYPE": 0, "CLASSIFICATION_TYPE": "U", "NORAD_CAT_ID": 30065, "ELEMENT_SET_NO": 999, "REV_AT_EPOCH": 95636, "BSTAR": 0.0002584381, "MEAN_MOTION_DOT": 2.84e-06, "MEAN_MOTION_DDOT": 0}, "tle": {"line1": "1 30065U 99025PS  25344.19555996  .00000284  00000+0  25844-3 0  9995", "line2": "2 30065  98.6838 317.2052 0131759  38.5254 322.5220 13.86913901956367"}}, "geometry": {"type": "Point", "coordinates": [-49.99366332491052, 44.64439271704731]}}, {"type": "Feature", "properties": {"norad_id": 30066, "name": "FENGYUN 1C DEB", "group": "fengyun-1c-debris", "lat": 16.407915090350773, "lon": 158.8131549533012, "alt_km": 844.574163067764, "timestamp": "2025-12-11T18:59:46.346837+00:00", "meta": {"OBJECT_NAME": "FENGYUN 1C DEB", "OBJECT_ID": "1999-025PT", "EPOCH": "2025-12-11T06:26:31.170048", "MEAN_MOTION": 14.19107929, "ECCENTRICITY": 0.01167058, "INCLINATION": 98.6341, "RA_OF_ASC_NODE": 335.7391, "ARG_OF_PERICENTER": 266.1719, "MEAN_ANOMALY": 107.57, "EPHEMERIS_TYPE": 0, "CLASSIFICATION_TYPE": "U", "NORAD_CAT_ID": 30066, "ELEMENT_SET_NO": 999, "REV_AT_EPOCH": 97816, "BSTAR": 0.00027357784, "MEAN_MOTION_DOT": 5.68e-06, "MEAN_MOTION_DDOT": 0}, "tle": {"line1": "1 30066U 99025PT  25345.26841632  .00000568  00000+0  27358-3 0  9997", "line2": "2 30066  98.6341 335.7391 0116705 266.1719 107.5700 14.19107929978165"}}, "geometry": {"type": "Point", "coordinates": [158.8131549533012, 16.407915090350773]}}, {"type": "Feature", "properties": {"norad_id": 30067, "name": "FENGYUN 1C DEB", "group": "fengyun-1c-debris", "lat": 3.0381816517727227, "lon": -128.62325334304262, "alt_km": 645.6155854790895, "timestamp": "2025-12-11T18:59:46.346848+00:00", "meta": {"OBJECT_NAME": "FENGYUN 1C DEB", "OBJECT_ID": "1999-025PU", "EPOCH": "2025-12-11T06:13:36.094656", "MEAN_MOTION": 14.43679311, "ECCENTRICITY": 0.01519482, "INCLINATION": 98.7652, "RA_OF_ASC_NODE": 231.2981, "ARG_OF_PERICENTER": 22.5119, "MEAN_ANOMALY": 97.5316, "EPHEMERIS_TYPE": 0, "CLASSIFICATION_TYPE": "U", "NORAD_CAT_ID": 30067, "ELEMENT_SET_NO": 999, "REV_AT_EPOCH": 99177, "BSTAR": 0.00068223082, "MEAN_MOTION_DOT": 2.613e-05, "MEAN_MOTION_DDOT": 0}, "tle": {"line1": "1 30067U 99025PU  25345.25944554  .00002613  00000+0  68223-3 0  9993", "line2": "2 30067  98.7652 231.2981 0151948  22.5119  97.5316 14.43679311991772"}}, "geometry": {"type": "Point", "coordinates": [-128.62325334304262, 3.0381816517727227]}}, {"type": "Feature", "properties": {"norad_id": 30068, "name": "FENGYUN 1C DEB", "group": "fengyun-1c-debris", "lat": -8.734212299515333, "lon": -25.022308832797826, "alt_km": 718.8997391310868, "timestamp": "2025-12-11T18:59:46.346859+00:00", "meta": {"OBJECT_NAME": "FENGYUN 1C DEB", "OBJECT_ID": "1999-025PV", "EPOCH": "2025-12-11T05:25:54.385824", "MEAN_MOTION": 14.12045192, "ECCENTRICITY": 0.01900626, "INCLINATION": 98.7365, "RA_OF_ASC_NODE": 333.073, "ARG_OF_PERICENTER": 353.1521, "MEAN_ANOMALY": 6.706, "EPHEMERIS_TYPE": 0, "CLASSIFICATION_TYPE": "U", "NORAD_CAT_ID": 30068, "ELEMENT_SET_NO": 999, "REV_AT_EPOCH": 97322, "BSTAR": 0.00031467329, "MEAN_MOTION_DOT": 6.4e-06, "MEAN_MOTION_DDOT": 0}, "tle": {"line1": "1 30068U 99025PV  25345.22632391  .00000640  00000+0  31467-3 0  9992", "line2": "2 30068  98.7365 333.0730 0190062 353.1521   6.7060 14.12045192973225"}}, "geometry": {"type": "Point", "coordinates": [-25.022308832797826, -8.734212299515333]}}, {"type": "Feature", "properties": {"norad_id": 30069, "name": "FENGYUN 1C DEB", "group": "fengyun-1c-debris", "lat": 78.70350893758854, "lon": -161.4768756321621, "alt_km": 841.1307334598687, "timestamp": "2025-12-11T18:59:46.346869+00:00", "meta": {"OBJECT_NAME": "FENGYUN 1C DEB", "OBJECT_ID": "1999-025PW", "EPOCH": "2025-12-11T04:59:08.640096", "MEAN_MOTION": 14.0522153, "ECCENTRICITY": 0.00499422, "INCLINATION": 98.8009, "RA_OF_ASC_NODE": 327.1014, "ARG_OF_PERICENTER": 57.3717, "MEAN_ANOMALY": 327.8047, "EPHEMERIS_TYPE": 0, "CLASSIFICATION_TYPE": "U", "NORAD_CAT_ID": 30069, "ELEMENT_SET_NO": 999, "REV_AT_EPOCH": 96825, "BSTAR": 0.00026461719, "MEAN_MOTION_DOT": 3.9e-06, "MEAN_MOTION_DDOT": 0}, "tle": {"line1": "1 30069U 99025PW  25345.20773889  .00000390  00000+0  26462-3 0  9990", "line2": "2 30069  98.8009 327.1014 0049942  57.3717 327.8047 14.05221530968254"}}, "geometry": {"type": "Point", "coordinates": [-161.4768756321621, 78.70350893758854]}}, {"type": "Feature", "properties": {"norad_id": 30070, "name": "FENGYUN 1C DEB", "group": "fengyun-1c-debris", "lat": -46.17628898448784, "lon": -143.23793652223455, "alt_km": 879.384266327419, "timestamp": "2025-12-11T18:59:46.346880+00:00", "meta": {"OBJECT_NAME": "FENGYUN 1C DEB", "OBJECT_ID": "1999-025PX", "EPOCH": "2025-12-10T23:44:55.055040", "MEAN_MOTION": 14.09883388, "ECCENTRICITY": 0.0328231, "INCLINATION": 98.2864, "RA_OF_ASC_NODE": 44.7556, "ARG_OF_PERICENTER": 324.0202, "MEAN_ANOMALY": 158.2206, "EPHEMERIS_TYPE": 0, "CLASSIFICATION_TYPE": "U", "NORAD_CAT_ID": 30070, "ELEMENT_SET_NO": 999, "REV_AT_EPOCH": 95854, "BSTAR": 0.002311, "MEAN_MOTION_DOT": 6.681e-05, "MEAN_MOTION_DDOT": 0}, "tle": {"line1": "1 30070U 99025PX  25344.98952610  .00006681  00000+0  23110-2 0  9992", "line2": "2 30070  98.2864  44.7556 0328231 324.0202 158.2206 14.09883388958549"}}, "geometry": {"type": "Point", "coordinates": [-143.23793652223455, -46.17628898448784]}}]}